NORAD_CAT_ID,OBJECT_NAME,OBJECT_TYPE,EPOCH,MEAN_MOTION,ECCENTRICITY,INCLINATION,RA_OF_ASC_NODE,ARG_OF_PERICENTER,MEAN_ANOMALY,BSTAR,MEAN_MOTION_DOT,MEAN_MOTION_DDOT,TLE_LINE0,TLE_LINE1,TLE_LINE2,SEMIMAJOR_AXIS,PERIOD,APOGEE,PERIGEE,DECAYED
52631.0,STARLINK-3794,PAYLOAD,2022-05-20 16:00:00,15.80524858,0.000106,53.2167,50.8367,73.5045,332.7507,-0.0043282,-0.00770114,0.0,0 STARLINK-3794,1 52631U 22052AK  22140.66667824 -.00770114  00000-0 -43282-2 0  9995,2 52631  53.2167  50.8367 0001060  73.5045 332.7507 15.80524858  1300,6707.092,91.109,329.668,328.246,0.0
52631.0,STARLINK-3794,PAYLOAD,2022-05-21 20:00:01,15.78402367,0.0001194,53.2178,45.0092,83.4011,120.5465,-0.0054943,-0.00875895,0.0,0 STARLINK-3794,1 52631U 22052AK  22141.83334491 -.00875895  00000-0 -54943-2 0  9994,2 52631  53.2178  45.0092 0001194  83.4011 120.5465 15.78402367  1486,6713.104,91.231,335.77,334.167,0.0
52631.0,STARLINK-3794,PAYLOAD,2022-05-21 22:00:00,15.78245713,0.0001049,53.2176,44.5944,83.6633,234.053,-0.005544,-0.00877353,0.0,0 STARLINK-3794,1 52631U 22052AK  22141.91667824 -.00877353  00000-0 -55440-2 0  9996,2 52631  53.2176  44.5944 0001049  83.6633 234.0530 15.78245713  1300,6713.5480000000025,91.241,336.117,334.709,0.0
52631.0,STARLINK-3794,PAYLOAD,2022-05-22 14:00:01,15.76985524,0.0001095999999999,53.2171,41.2723,82.7722,63.3979,-0.0058448,-0.00874238,0.0,0 STARLINK-3794,1 52631U 22052AK  22142.58334491 -.00874238  00000-0 -58448-2 0  9991,2 52631  53.2171  41.2723 0001096  82.7722  63.3979 15.76985524  1304,6717.124,91.313,339.725,338.2530000000001,0.0
52631.0,STARLINK-3794,PAYLOAD,2022-05-22 20:00:01,15.76514339,0.0001107999999999,53.2174,40.0294,79.3373,46.722,-0.005978,-0.00875411,0.0,0 STARLINK-3794,1 52631U 22052AK  22142.83334491 -.00875411  00000-0 -59780-2 0  9993,2 52631  53.2174  40.0294 0001108  79.3373  46.7220 15.76514339  1648,6718.462,91.341,341.07199999999995,339.583,0.0
52631.0,STARLINK-3794,PAYLOAD,2022-05-22 22:00:01,15.76355293,0.0001186,53.2174,39.6157,85.7472,153.5802,-0.0060003,-0.00872778,0.0,0 STARLINK-3794,1 52631U 22052AK  22142.91668981 -.00872778  00000-0 -60003-2 0  9999,2 52631  53.2174  39.6157 0001186  85.7472 153.5802 15.76355293  1305,6718.9140000000025,91.35,341.576,339.982,0.0
52631.0,STARLINK-3794,PAYLOAD,2022-05-23 14:00:01,15.75097381,9.79e-05,53.2173,36.3027,103.8393,319.3389,-0.0063543,-0.00874024,0.0,0 STARLINK-3794,1 52631U 22052AK  22143.58334491 -.00874024  00000-0 -63543-2 0  9997,2 52631  53.2173  36.3027 0000979 103.8393 319.3389 15.75097381  1309,6722.491,91.423,345.014,343.6980000000001,0.0
52631.0,STARLINK-3794,PAYLOAD,2022-05-23 20:00:01,15.74627382,9.89e-05,53.2177,35.0636,93.0779,308.2872,-0.0065058,-0.00876347,0.0,0 STARLINK-3794,1 52631U 22052AK  22143.83334491 -.00876347  00000-0 -65058-2 0  9998,2 52631  53.2177  35.0636 0000989  93.0779 308.2872 15.74627382  1802,6723.829000000002,91.45,346.3590000000001,345.029,0.0
52631.0,STARLINK-3794,PAYLOAD,2022-05-23 22:00:01,15.744670800000002,0.0001149,53.2174,34.6508,83.7484,70.3177,-0.0065136,-0.00871802,0.0,0 STARLINK-3794,1 52631U 22052AK  22143.91668981 -.00871802  00000-0 -65136-2 0  9999,2 52631  53.2174  34.6508 0001149  83.7484  70.3177 15.74467080  1307,6724.285,91.46,346.923,345.37699999999984,0.0
52631.0,STARLINK-3794,PAYLOAD,2022-05-24 12:00:00,15.73230584,0.0001116,53.2174,31.7597,95.7329,125.4028,-0.00030442,-0.00043179,0.0,0 STARLINK-3794,1 52631U 22052AK  22144.50001157 -.00043179  00000-0 -30442-3 0  9992,2 52631  53.2174  31.7597 0001116  95.7329 125.4028 15.73230584  1907,6727.808000000001,91.531,350.4240000000001,348.922,0.0
52631.0,STARLINK-3794,PAYLOAD,2022-05-24 14:00:01,15.73203123,0.0001139,53.2172,31.347,103.4835,229.899,8.0705e-06,5.13e-06,0.0,0 STARLINK-3794,1 52631U 22052AK  22144.58334491  .00000513  00000-0  80705-5 0  9992,2 52631  53.2172  31.3470 0001139 103.4835 229.8990 15.73203123  1305,6727.886,91.533,350.51800000000014,348.985,0.0
52631.0,STARLINK-3794,PAYLOAD,2022-05-24 22:00:00,15.73204838,9.65e-05,53.2162,29.7003,98.8266,323.4578,0.00031139,0.00043316,0.0,0 STARLINK-3794,1 52631U 22052AK  22144.91667824  .00043316  00000-0  31139-3 0  9991,2 52631  53.2162  29.7003 0000965  98.8266 323.4578 15.73204838  1305,6727.880999999999,91.533,350.396,349.097,0.0
52631.0,STARLINK-3794,PAYLOAD,2022-05-25 04:00:00,15.73183203,6.59e-05,53.2141,28.4659,103.8917,295.0853,0.00072208,0.00101882,0.0,0 STARLINK-3794,1 52631U 22052AK  22145.16667824  .00101882  00000-0  72208-3 0  9994,2 52631  53.2141  28.4659 0000659 103.8917 295.0853 15.73183203  2016,6727.943,91.534,350.251,349.365,0.0
52631.0,STARLINK-3794,PAYLOAD,2022-05-25 12:00:00,15.73238022,8.170000000000001e-05,53.2146,26.8142,118.4543,9.4698,0.0001709,0.00023471,0.0,0 STARLINK-3794,1 52631U 22052AK  22145.50001157  .00023471  00000-0  17090-3 0  9998,2 52631  53.2146  26.8142 0000817 118.4543   9.4698 15.73238022  2062,6727.7869999999975,91.531,350.201,349.102,0.0
52631.0,STARLINK-3794,PAYLOAD,2022-05-25 14:00:01,15.73258768,8.909999999999997e-05,53.2146,26.4014,118.2035,121.9614,-0.00014984,-0.00021647,0.0,0 STARLINK-3794,1 52631U 22052AK  22145.58334491 -.00021647  00000-0 -14984-3 0  9990,2 52631  53.2146  26.4014 0000891 118.2035 121.9614 15.73258768  1305,6727.728,91.53,350.19199999999995,348.99300000000005,0.0
52631.0,STARLINK-3794,PAYLOAD,2022-05-25 20:36:23,15.73267005,0.0001219,53.2152,25.0388,138.8699,221.2413,0.00025134,0.00034901,0.0,0 STARLINK-3794,1 52631U 22052AK  22145.85860730  .00034901  00000-0  25134-3 0  9994,2 52631  53.2152  25.0388 0001219 138.8699 221.2413 15.73267005  1754,6727.704000000002,91.529,350.389,348.749,0.0
52631.0,STARLINK-3794,PAYLOAD,2022-05-26 04:00:00,15.73209564,0.0001109,53.2141,23.5169,95.8784,210.0264,0.00028546,0.00039648,0.0,0 STARLINK-3794,1 52631U 22052AK  22146.16667824  .00039648  00000-0  28546-3 0  9991,2 52631  53.2141  23.5169 0001109  95.8784 210.0264 15.73209564  2169,6727.868,91.533,350.47900000000016,348.987,0.0
52631.0,STARLINK-3794,PAYLOAD,2022-05-26 08:48:13,15.73239364,8.590000000000001e-05,53.215,22.5247,135.113,224.996,-4.3006e-06,-1.224e-05,0.0,0 STARLINK-3794,1 52631U 22052AK  22146.36682231 -.00001224  00000-0 -43006-5 0  9993,2 52631  53.2150  22.5247 0000859 135.1130 224.9960 15.73239364  1830,6727.783,91.531,350.226,349.07,0.0
52631.0,STARLINK-3794,PAYLOAD,2022-05-26 12:00:00,15.73191295,0.000137,53.2142,21.8652,108.4788,286.3913,2.2434e-05,2.528e-05,0.0,0 STARLINK-3794,1 52631U 22052AK  22146.50001157  .00002528  00000-0  22434-4 0  9998,2 52631  53.2142  21.8652 0001370 108.4788 286.3913 15.73191295  2228,6727.92,91.534,350.707,348.86300000000006,0.0
52631.0,STARLINK-3794,PAYLOAD,2022-05-26 20:00:01,15.732603,9.05e-05,53.2144,20.217,113.2095,10.6212,-0.00060266,-0.00084567,0.0,0 STARLINK-3794,1 52631U 22052AK  22146.83334491 -.00084567  00000-0 -60266-3 0  9993,2 52631  53.2144  20.2170 0000905 113.2095  10.6212 15.73260300  2275,6727.723000000001,91.53,350.19699999999995,348.97900000000016,0.0
52631.0,STARLINK-3794,PAYLOAD,2022-05-26 22:31:32,15.73250414,0.0001101,53.2153,19.6949,105.6697,254.4445,0.00019057,0.00026266,0.0,0 STARLINK-3794,1 52631U 22052AK  22146.93856539  .00026266  00000-0  19057-3 0  9998,2 52631  53.2153  19.6949 0001101 105.6697 254.4445 15.73250414  1925,6727.751,91.53,350.357,348.876,0.0
52631.0,STARLINK-3794,PAYLOAD,2022-05-27 04:00:00,15.73209533,9.26e-05,53.2141,18.5681,103.668,109.1247,0.00021291,0.00029377,0.0,0 STARLINK-3794,1 52631U 22052AK  22147.16667824  .00029377  00000-0  21291-3 0  9990,2 52631  53.2141  18.5681 0000926 103.6680 109.1247 15.73209533  2324,6727.868,91.533,350.356,349.11,0.0
52631.0,STARLINK-3794,PAYLOAD,2022-05-27 12:00:00,15.73170673,0.0001115,53.2146,16.9164,112.0598,189.6999,0.00038295,0.00053399,0.0,0 STARLINK-3794,1 52631U 22052AK  22147.50001157  .00053399  00000-0  38295-3 0  9992,2 52631  53.2146  16.9164 0001115 112.0598 189.6999 15.73170673  2374,6727.979,91.535,350.594,349.094,0.0
52631.0,STARLINK-3794,PAYLOAD,2022-05-27 14:00:01,15.73164228,0.000118,53.2147,16.5037,112.9474,301.0429,0.00059045,0.0008294,0.0,0 STARLINK-3794,1 52631U 22052AK  22147.58334491  .00082940  00000-0  59045-3 0  9990,2 52631  53.2147  16.5037 0001180 112.9474 301.0429 15.73164228  1303,6727.996999999999,91.535,350.656,349.0680000000001,0.0
52631.0,STARLINK-3794,PAYLOAD,2022-05-27 21:23:43,15.73232234,8.94e-05,53.2153,14.9781,114.392,245.7193,2.4119e-05,2.771e-05,0.0,0 STARLINK-3794,1 52631U 22052AK  22147.89147487  .00002771  00000-0  24119-4 0  9990,2 52631  53.2153  14.9781 0000894 114.3920 245.7193 15.73232234  2071,6727.803000000001,91.531,350.27,349.06699999999995,0.0
52631.0,STARLINK-3794,PAYLOAD,2022-05-28 04:00:00,15.73423848,0.0001081,53.2156,13.6182,96.6311,22.964,-0.0043983,-0.00582507,0.0,0 STARLINK-3794,1 52631U 22052AK  22148.16667824 -.00582507  00000-0 -43983-2 0  9993,2 52631  53.2156  13.6182 0001081  96.6311  22.9640 15.73423848  2480,6727.257,91.52,349.849,348.395,0.0
52631.0,STARLINK-3794,PAYLOAD,2022-05-28 12:00:00,15.73195467,0.0001016,53.214,11.9675,113.4709,95.1401,0.00036656,0.00051128,0.0,0 STARLINK-3794,1 52631U 22052AK  22148.50001157  .00051128  00000-0  36656-3 0  9990,2 52631  53.2140  11.9675 0001016 113.4709  95.1401 15.73195467  2534,6727.908,91.533,350.457,349.09,0.0
52631.0,STARLINK-3794,PAYLOAD,2022-05-28 14:00:01,15.73203079,0.0001119,53.2142,11.555,113.26,207.5855,0.00030784,0.00042809,0.0,0 STARLINK-3794,1 52631U 22052AK  22148.58334491  .00042809  00000-0  30784-3 0  9990,2 52631  53.2142  11.5550 0001119 113.2600 207.5855 15.73203079  1301,6727.886,91.533,350.504,348.999,0.0
52631.0,STARLINK-3794,PAYLOAD,2022-05-28 21:47:23,15.73233519,9.79e-05,53.2148,9.9485,100.7133,259.3997,6.6739e-05,8.77e-05,0.0,0 STARLINK-3794,1 52631U 22052AK  22148.90790945  .00008770  00000-0  66739-4 0  9995,2 52631  53.2148   9.9485 0000979 100.7133 259.3997 15.73233519  2237,6727.8,91.531,350.3230000000001,349.006,0.0
